[Satellite]
VERSION=1.1
NAME=ONEWEB AE
NICKNAME=ONEWEB AE
TLE1=1 45159U 20008AE  20065.21203887 -.00280780  00000-0 -10213-1 0  9993
TLE2=2 45159  87.4056 155.0220 0017223 193.3308 166.7489 15.29333870  4931
STATUS=0
